STARLINK-1415_new
1 15691C 20035AL  21326.15695341  .00006031  00000-0  40403-3 0  3261
2 15691  53.0547 258.0494 0002112  59.8001 254.1525 15.06398672    14
STARLINK-1415_old
1 25691C 20035AL  21325.11804194  .00006440  00000-0  43158-3 0  3257
2 25691  53.0546 262.7129 0002033  58.5576  18.2412 15.06384474    14
